     2.10           G: GLONASS NAV DATA                     RINEX VERSION / TYPE
teqc  2015Jun23                         20210925 01:26:19UTCPGM / RUN BY / DATE
Linux 2.4.21-27.ELsmp|Opteron|gcc -static|Linux x86_64|=+   COMMENT
  2021     9     1   -9.313225746155D-10                    CORR TO SYSTEM TIME
                                                            END OF HEADER
22 21  9  2 10 45  0.0-1.310752704740D-04-9.094947017729D-13 3.780000000000D+04
    1.017397851562D+04-8.600606918335D-01-9.313225746155D-10 0.000000000000D+00
    2.029225146484D+04-1.372201919556D+00-0.000000000000D+00-3.000000000000D+00
   -1.174003564453D+04-3.113848686218D+00 0.000000000000D+00 0.000000000000D+00
23 21  9  2 10 45  0.0-1.264363527298D-05-0.000000000000D+00 3.780000000000D+04
    1.821513134766D+04 1.015082359314D+00 9.313225746155D-10 0.000000000000D+00
    1.508983642578D+04 8.567781448364D-01-1.862645149231D-09 3.000000000000D+00
    9.526191894531D+03-3.294723510742D+00 0.000000000000D+00 0.000000000000D+00
12 21  9  2 10 45  0.0 2.586711198092D-04 2.728484105319D-12 3.951000000000D+04
    8.037385253906D+03-9.513645172119D-01-9.313225746155D-10 0.000000000000D+00
    9.392072753906D+03 2.907736778259D+00 0.000000000000D+00-1.000000000000D+00
   -2.227686621094D+04 8.827028274536D-01 9.313225746155D-10 0.000000000000D+00
10 21  9  2 11 15  0.0-7.456727325916D-05-0.000000000000D+00 3.960000000000D+04
   -9.887496582031D+03 4.439821243286D-01-9.313225746155D-10 0.000000000000D+00
    1.983864306641D+04-1.668889045715D+00-0.000000000000D+00-7.000000000000D+00
    1.256218554688D+04 2.991024971008D+00-2.793967723846D-09 0.000000000000D+00
12 21  9  2 11 15  0.0 2.586757764220D-04 2.728484105319D-12 3.960000000000D+04
    6.771141113281D+03-4.580688476562D-01-1.862645149231D-09 0.000000000000D+00
    1.447346533203D+04 2.687918663025D+00 0.000000000000D+00-1.000000000000D+00
   -1.984441552734D+04 1.802399635315D+00 9.313225746155D-10 0.000000000000D+00
 7 21  9  2 11 15  0.0-4.140567034483D-05 0.000000000000D+00 3.960000000000D+04
   -1.860005419922D+04-1.557466506958D+00-1.862645149231D-09 0.000000000000D+00
    1.233171582031D+04 6.605749130249D-01 0.000000000000D+00 5.000000000000D+00
    1.234447607422D+04-3.018779754639D+00-2.793967723846D-09 0.000000000000D+00
21 21  9  2 11 15  0.0-2.361508086324D-04-2.728484105319D-12 3.960000000000D+04
   -6.441182128906D+03-2.362115859985D+00-2.793967723846D-09 0.000000000000D+00
    8.278208496094D+03-2.140517234802D+00 9.313225746155D-10 4.000000000000D+00
   -2.325490625000D+04-1.109924316406D-01 0.000000000000D+00 0.000000000000D+00
22 21  9  2 11 15  0.0-1.310780644417D-04-9.094947017729D-13 3.960000000000D+04
    7.984152832031D+03-1.574651718140D+00-1.862645149231D-09 0.000000000000D+00
    1.749773291016D+04-1.685911178589D+00 0.000000000000D+00-3.000000000000D+00
   -1.682152880859D+04-2.495744705200D+00 0.000000000000D+00 0.000000000000D+00
23 21  9  2 11 15  0.0-1.264549791813D-05-0.000000000000D+00 3.960000000000D+04
    1.961621337891D+04 5.017299652100D-01 0.000000000000D+00 0.000000000000D+00
    1.595810205078D+04 1.256341934204D-01-1.862645149231D-09 3.000000000000D+00
    3.303740234375D+03-3.574161529541D+00 0.000000000000D+00 0.000000000000D+00
 8 21  9  2 11 15  0.0-6.071478128433D-05 0.000000000000D+00 4.101000000000D+04
   -3.141358886719D+03-2.865669250488D+00 0.000000000000D+00 0.000000000000D+00
    1.216044091797D+04 9.950923919678D-01-9.313225746155D-10 6.000000000000D+00
    2.224845654297D+04-9.527511596680D-01-2.793967723846D-09 0.000000000000D+00
10 21  9  2 11 45  0.0-7.456913590431D-05-0.000000000000D+00 4.140000000000D+04
   -9.248335937500D+03 2.315740585327D-01-9.313225746155D-10 0.000000000000D+00
    1.617281542969D+04-2.374126434326D+00-0.000000000000D+00-7.000000000000D+00
    1.738900781250D+04 2.337269783020D+00-2.793967723846D-09 0.000000000000D+00
 8 21  9  2 11 45  0.0-6.071384996176D-05 0.000000000000D+00 4.140000000000D+04
   -7.896181152344D+03-2.379722595215D+00-0.000000000000D+00 0.000000000000D+00
    1.420939404297D+04 1.248643875122D+00-0.000000000000D+00 6.000000000000D+00
    1.969942968750D+04-1.861349105835D+00-2.793967723846D-09 0.000000000000D+00
 7 21  9  2 11 45  0.0-4.140473902225D-05-0.000000000000D+00 4.140000000000D+04
   -2.066415429688D+04-7.300529479980D-01-1.862645149231D-09 0.000000000000D+00
    1.343855078125D+04 5.265722274780D-01 9.313225746155D-10 5.000000000000D+00
    6.503228027344D+03-3.429386138916D+00-2.793967723846D-09 0.000000000000D+00
12 21  9  2 11 45  0.0 2.586813643575D-04 2.728484105319D-12 4.140000000000D+04
    6.347419921875D+03-3.247737884521D-02-1.862645149231D-09 0.000000000000D+00
    1.889678271484D+04 2.183267593384D+00 0.000000000000D+00-1.000000000000D+00
   -1.587243750000D+04 2.582117080688D+00 0.000000000000D+00 0.000000000000D+00
22 21  9  2 11 45  0.0-1.310808584094D-04-9.094947017729D-13 4.140000000000D+04
    4.534825195312D+03-2.240037918091D+00-1.862645149231D-09 0.000000000000D+00
    1.439388281250D+04-1.716359138489D+00 9.313225746155D-10-3.000000000000D+00
   -2.060895361328D+04-1.685197830200D+00 0.000000000000D+00 0.000000000000D+00
23 21  9  2 11 45  0.0-1.264642924070D-05-0.000000000000D+00 4.140000000000D+04
    1.989893359375D+04-2.144317626953D-01-0.000000000000D+00 0.000000000000D+00
    1.563565722656D+04-4.506196975708D-01-9.313225746155D-10 3.000000000000D+00
   -3.174387695312D+03-3.576985359192D+00 0.000000000000D+00 0.000000000000D+00
10 21  9  2 12 15  0.0-7.457006722689D-05-0.000000000000D+00 4.320000000000D+04
   -9.157153320312D+03-1.519784927368D-01-0.000000000000D+00 0.000000000000D+00
    1.142673242188D+04-2.855605125427D+00-0.000000000000D+00-7.000000000000D+00
    2.086779394531D+04 1.503043174744D+00-2.793967723846D-09 0.000000000000D+00
 8 21  9  2 12 15  0.0-6.071384996176D-05 0.000000000000D+00 4.320000000000D+04
   -1.159938085938D+04-1.713006973267D+00-9.313225746155D-10 0.000000000000D+00
    1.651785253906D+04 1.273976325989D+00 0.000000000000D+00 6.000000000000D+00
    1.563323339844D+04-2.627578735352D+00-2.793967723846D-09 0.000000000000D+00
 7 21  9  2 12 15  0.0-4.140567034483D-05-0.000000000000D+00 4.320000000000D+04
   -2.124200683594D+04 7.464790344238D-02-1.862645149231D-09 0.000000000000D+00
    1.407755859375D+04 1.444025039673D-01 1.862645149231D-09 5.000000000000D+00
    1.582939453125D+02-3.574674606323D+00-1.862645149231D-09 0.000000000000D+00
12 21  9  2 12 15  0.0 2.586860209703D-04 2.728484105319D-12 4.320000000000D+04
    6.557192382812D+03 2.324323654175D-01-1.862645149231D-09 0.000000000000D+00
    2.219832714844D+04 1.454944610596D+00 0.000000000000D+00-1.000000000000D+00
   -1.066943896484D+04 3.161293029785D+00-0.000000000000D+00 0.000000000000D+00
22 21  9  2 12 15  0.0-1.310836523771D-04-9.094947017729D-13 4.320000000000D+04
    1.694482421875D+01-2.744618415833D+00-1.862645149231D-09 0.000000000000D+00
    1.147409033203D+04-1.489481925964D+00 1.862645149231D-09-3.000000000000D+00
   -2.280966845703D+04-7.440385818481D-01 0.000000000000D+00 0.000000000000D+00
23 21  9  2 12 15  0.0-1.264736056328D-05-0.000000000000D+00 4.320000000000D+04
    1.877883056641D+04-1.038925170898D+00-9.313225746155D-10 0.000000000000D+00
    1.447531445312D+04-7.958917617798D-01-0.000000000000D+00 3.000000000000D+00
   -9.406983886719D+03-3.303157806396D+00 0.000000000000D+00 0.000000000000D+00
 1 21  9  2 12 15  0.0 8.474942296743D-05 0.000000000000D+00 4.449000000000D+04
    3.126542968750D+03-2.547264099121D+00 0.000000000000D+00 0.000000000000D+00
    1.113653369141D+04 1.788605690002D+00-9.313225746155D-10 1.000000000000D+00
    2.273270605469D+04-5.245714187622D-01-1.862645149231D-09 0.000000000000D+00
 8 21  9  2 12 45  0.0-6.071105599403D-05-0.000000000000D+00 4.500000000000D+04
   -1.401720410156D+04-9.702386856079D-01-9.313225746155D-10 0.000000000000D+00
    1.863634326172D+04 1.035223960876D+00 9.313225746155D-10 6.000000000000D+00
    1.036146386719D+04-3.192122459412D+00-2.793967723846D-09 0.000000000000D+00
 7 21  9  2 12 45  0.0-4.140567034483D-05-0.000000000000D+00 4.500000000000D+04
   -2.047485156250D+04 7.477931976318D-01-1.862645149231D-09 0.000000000000D+00
    1.383493115234D+04-4.422492980957D-01 2.793967723846D-09 5.000000000000D+00
   -6.198840332031D+03-3.442763328552D+00-9.313225746155D-10 0.000000000000D+00
12 21  9  2 12 45  0.0 2.586916089058D-04 2.728484105319D-12 4.500000000000D+04
    7.049417480469D+03 2.741479873657D-01-1.862645149231D-09 0.000000000000D+00
    2.405720556641D+04 5.982980728149D-01 0.000000000000D+00-1.000000000000D+00
   -4.639375000000D+03 3.495134353638D+00-9.313225746155D-10 0.000000000000D+00
22 21  9  2 12 45  0.0-1.310864463449D-04-1.818989403546D-12 4.500000000000D+04
   -5.194664062500D+03-2.998556137085D+00-1.862645149231D-09 0.000000000000D+00
    9.146022949219D+03-1.073174476624D+00 2.793967723846D-09-3.000000000000D+00
   -2.325222509766D+04 2.557353973389D-01 0.000000000000D+00 0.000000000000D+00
23 21  9  2 12 45  0.0-1.264829188585D-05-0.000000000000D+00 4.500000000000D+04
    1.616306787109D+04-1.856231689453D+00-9.313225746155D-10 0.000000000000D+00
    1.293056738281D+04-8.758945465088D-01 0.000000000000D+00 3.000000000000D+00
   -1.491220996094D+04-2.774083137512D+00 0.000000000000D+00 0.000000000000D+00
 1 21  9  2 12 45  0.0 8.475035429001D-05 0.000000000000D+00 4.521000000000D+04
   -1.067358886719D+03-2.081140518188D+00-0.000000000000D+00 0.000000000000D+00
    1.455400585938D+04 1.968937873840D+00-9.313225746155D-10 1.000000000000D+00
    2.092191455078D+04-1.474324226379D+00-2.793967723846D-09 0.000000000000D+00
 8 21  9  2 13 15  0.0-6.071105599403D-05-0.000000000000D+00 4.680000000000D+04
   -1.511466894531D+04-2.645082473755D-01-9.313225746155D-10 0.000000000000D+00
    2.009065820312D+04 5.413084030151D-01 1.862645149231D-09 6.000000000000D+00
    4.289490722656D+03-3.510800361633D+00-1.862645149231D-09 0.000000000000D+00
